IDEFIX & ARIANE 42P R/B 
1 27422U 02021B   25338.68185348  .00000616  00000+0  25083-3 0  9999
2 27422  98.5775 273.4778 0012853 105.3762 254.8842 14.30941213230434
AQUA                    
1 27424U 02022A   25338.76016413  .00002483  00000+0  50742-3 0  9991
2 27424  98.4023 299.5099 0000828 110.8540   7.4292 14.61779372254863
CZ-4B R/B               
1 27432U 02024C   25338.66270891  .00000140  00000+0  95219-4 0  9990
2 27432  98.9012  27.4622 0049209 293.3069 179.3670 14.14525273215801
MIDORI II (ADEOS-II)    
1 27597U 02056A   25338.59438236  .00000564  00000+0  23975-3 0  9997
2 27597  98.7623 291.5085 0000261   8.5691 351.5494 14.29197346196716
H-2A R/B                
1 27601U 02056E   25338.67620148  .00000638  00000+0  23780-3 0  9993
2 27601  98.3052 297.7546 0071514  84.7882  87.4403 14.33666213200496
CZ-4B R/B               
1 28059U 03049C   25338.54912775  .00000750  00000+0  18357-3 0  9999
2 28059  98.6780 324.8039 0048575 160.7899 199.5143 14.54898086172760
CZ-2C R/B               
1 28222U 04012C   25338.69626841  .00062418  00000+0  93080-3 0  9999
2 28222  97.7437  30.6583 0016875 301.8850  58.0760 15.54715308189476
SL-16 R/B               
1 28353U 04021B   25338.70162024 -.00000086  00000+0 -19722-4 0  9991
2 28353  71.0023  71.8327 0005721 211.3906 148.6875 14.14582617109403
CZ-4B R/B               
1 28415U 04035C   25338.63364803  .00016638  00000+0  61730-3 0  9999
2 28415  97.3612   9.0871 0032068 307.6340  52.1990 15.27173821165394
CZ-2C R/B               
1 28480U 04046B   25338.68480023  .00000337  00000+0  13975-3 0  9998
2 28480  98.1982 254.5637 0140668  75.9354 285.7418 14.26935015 94959
ARIANE 5 R/B            
1 28499U 04049H   25338.43209885  .00001964  00000+0  22365-3 0  9999
2 28499  98.2520 138.4157 0083533 300.2498  59.0465 14.84983056131650
CZ-2D R/B               
1 28738U 05024B   25338.53815878  .00041508  00000+0  67452-3 0  9999
2 28738  97.3628 345.7745 0006791  32.9866 327.1809 15.52570493124982
