CCSDS_OMM_VERS = 2.0
CREATION_DATE  = 
ORIGINATOR     = 

OBJECT_NAME    = IDEFIX & ARIANE 42P R/B
OBJECT_ID      = 2002-021B
CENTER_NAME    = EARTH
REF_FRAME      = TEME
TIME_SYSTEM    = UTC
MEAN_ELEMENT_THEORY = SGP/SGP4

EPOCH          = 2025-12-04T16:21:52.140672
MEAN_MOTION    = 14.30941213
ECCENTRICITY   = .0012853
INCLINATION    = 98.5775
RA_OF_ASC_NODE = 273.4778
ARG_OF_PERICENTER = 105.3762
MEAN_ANOMALY   = 254.8842

EPHEMERIS_TYPE = 0
CLASSIFICATION_TYPE = U
NORAD_CAT_ID   = 27422
ELEMENT_SET_NO = 999
REV_AT_EPOCH   = 23043
BSTAR          = .25083E-3
MEAN_MOTION_DOT = .616E-5
MEAN_MOTION_DDOT = 0

CCSDS_OMM_VERS = 2.0
CREATION_DATE  = 
ORIGINATOR     = 

OBJECT_NAME    = AQUA
OBJECT_ID      = 2002-022A
CENTER_NAME    = EARTH
REF_FRAME      = TEME
TIME_SYSTEM    = UTC
MEAN_ELEMENT_THEORY = SGP/SGP4

EPOCH          = 2025-12-04T18:14:38.180832
MEAN_MOTION    = 14.61779372
ECCENTRICITY   = .0000828
INCLINATION    = 98.4023
RA_OF_ASC_NODE = 299.5099
ARG_OF_PERICENTER = 110.8540
MEAN_ANOMALY   = 7.4292

EPHEMERIS_TYPE = 0
CLASSIFICATION_TYPE = U
NORAD_CAT_ID   = 27424
ELEMENT_SET_NO = 999
REV_AT_EPOCH   = 25486
BSTAR          = .50742E-3
MEAN_MOTION_DOT = .2483E-4
MEAN_MOTION_DDOT = 0

CCSDS_OMM_VERS = 2.0
CREATION_DATE  = 
ORIGINATOR     = 

OBJECT_NAME    = CZ-4B R/B
OBJECT_ID      = 2002-024C
CENTER_NAME    = EARTH
REF_FRAME      = TEME
TIME_SYSTEM    = UTC
MEAN_ELEMENT_THEORY = SGP/SGP4

EPOCH          = 2025-12-04T15:54:18.049824
MEAN_MOTION    = 14.14525273
ECCENTRICITY   = .0049209
INCLINATION    = 98.9012
RA_OF_ASC_NODE = 27.4622
ARG_OF_PERICENTER = 293.3069
MEAN_ANOMALY   = 179.3670

EPHEMERIS_TYPE = 0
CLASSIFICATION_TYPE = U
NORAD_CAT_ID   = 27432
ELEMENT_SET_NO = 999
REV_AT_EPOCH   = 21580
BSTAR          = .95219E-4
MEAN_MOTION_DOT = .14E-5
MEAN_MOTION_DDOT = 0

CCSDS_OMM_VERS = 2.0
CREATION_DATE  = 
ORIGINATOR     = 

OBJECT_NAME    = MIDORI II (ADEOS-II)
OBJECT_ID      = 2002-056A
CENTER_NAME    = EARTH
REF_FRAME      = TEME
TIME_SYSTEM    = UTC
MEAN_ELEMENT_THEORY = SGP/SGP4

EPOCH          = 2025-12-04T14:15:54.635904
MEAN_MOTION    = 14.29197346
ECCENTRICITY   = .0000261
INCLINATION    = 98.7623
RA_OF_ASC_NODE = 291.5085
ARG_OF_PERICENTER = 8.5691
MEAN_ANOMALY   = 351.5494

EPHEMERIS_TYPE = 0
CLASSIFICATION_TYPE = U
NORAD_CAT_ID   = 27597
ELEMENT_SET_NO = 999
REV_AT_EPOCH   = 19671
BSTAR          = .23975E-3
MEAN_MOTION_DOT = .564E-5
MEAN_MOTION_DDOT = 0

CCSDS_OMM_VERS = 2.0
CREATION_DATE  = 
ORIGINATOR     = 

OBJECT_NAME    = H-2A R/B
OBJECT_ID      = 2002-056E
CENTER_NAME    = EARTH
REF_FRAME      = TEME
TIME_SYSTEM    = UTC
MEAN_ELEMENT_THEORY = SGP/SGP4

EPOCH          = 2025-12-04T16:13:43.807872
MEAN_MOTION    = 14.33666213
ECCENTRICITY   = .0071514
INCLINATION    = 98.3052
RA_OF_ASC_NODE = 297.7546
ARG_OF_PERICENTER = 84.7882
MEAN_ANOMALY   = 87.4403

EPHEMERIS_TYPE = 0
CLASSIFICATION_TYPE = U
NORAD_CAT_ID   = 27601
ELEMENT_SET_NO = 999
REV_AT_EPOCH   = 20049
BSTAR          = .2378E-3
MEAN_MOTION_DOT = .638E-5
MEAN_MOTION_DDOT = 0

CCSDS_OMM_VERS = 2.0
CREATION_DATE  = 
ORIGINATOR     = 

OBJECT_NAME    = CZ-4B R/B
OBJECT_ID      = 2003-049C
CENTER_NAME    = EARTH
REF_FRAME      = TEME
TIME_SYSTEM    = UTC
MEAN_ELEMENT_THEORY = SGP/SGP4

EPOCH          = 2025-12-04T13:10:44.637600
MEAN_MOTION    = 14.54898086
ECCENTRICITY   = .0048575
INCLINATION    = 98.6780
RA_OF_ASC_NODE = 324.8039
ARG_OF_PERICENTER = 160.7899
MEAN_ANOMALY   = 199.5143

EPHEMERIS_TYPE = 0
CLASSIFICATION_TYPE = U
NORAD_CAT_ID   = 28059
ELEMENT_SET_NO = 999
REV_AT_EPOCH   = 17276
BSTAR          = .18357E-3
MEAN_MOTION_DOT = .75E-5
MEAN_MOTION_DDOT = 0

CCSDS_OMM_VERS = 2.0
CREATION_DATE  = 
ORIGINATOR     = 

OBJECT_NAME    = CZ-2C R/B
OBJECT_ID      = 2004-012C
CENTER_NAME    = EARTH
REF_FRAME      = TEME
TIME_SYSTEM    = UTC
MEAN_ELEMENT_THEORY = SGP/SGP4

EPOCH          = 2025-12-04T16:42:37.590624
MEAN_MOTION    = 15.54715308
ECCENTRICITY   = .0016875
INCLINATION    = 97.7437
RA_OF_ASC_NODE = 30.6583
ARG_OF_PERICENTER = 301.8850
MEAN_ANOMALY   = 58.0760

EPHEMERIS_TYPE = 0
CLASSIFICATION_TYPE = U
NORAD_CAT_ID   = 28222
ELEMENT_SET_NO = 999
REV_AT_EPOCH   = 18947
BSTAR          = .9308E-3
MEAN_MOTION_DOT = .62418E-3
MEAN_MOTION_DDOT = 0

CCSDS_OMM_VERS = 2.0
CREATION_DATE  = 
ORIGINATOR     = 

OBJECT_NAME    = SL-16 R/B
OBJECT_ID      = 2004-021B
CENTER_NAME    = EARTH
REF_FRAME      = TEME
TIME_SYSTEM    = UTC
MEAN_ELEMENT_THEORY = SGP/SGP4

EPOCH          = 2025-12-04T16:50:19.988736
MEAN_MOTION    = 14.14582617
ECCENTRICITY   = .0005721
INCLINATION    = 71.0023
RA_OF_ASC_NODE = 71.8327
ARG_OF_PERICENTER = 211.3906
MEAN_ANOMALY   = 148.6875

EPHEMERIS_TYPE = 0
CLASSIFICATION_TYPE = U
NORAD_CAT_ID   = 28353
ELEMENT_SET_NO = 999
REV_AT_EPOCH   = 10940
BSTAR          = -.19722E-4
MEAN_MOTION_DOT = -.86E-6
MEAN_MOTION_DDOT = 0

CCSDS_OMM_VERS = 2.0
CREATION_DATE  = 
ORIGINATOR     = 

OBJECT_NAME    = CZ-4B R/B
OBJECT_ID      = 2004-035C
CENTER_NAME    = EARTH
REF_FRAME      = TEME
TIME_SYSTEM    = UTC
MEAN_ELEMENT_THEORY = SGP/SGP4

EPOCH          = 2025-12-04T15:12:27.189792
MEAN_MOTION    = 15.27173821
ECCENTRICITY   = .0032068
INCLINATION    = 97.3612
RA_OF_ASC_NODE = 9.0871
ARG_OF_PERICENTER = 307.6340
MEAN_ANOMALY   = 52.1990

EPHEMERIS_TYPE = 0
CLASSIFICATION_TYPE = U
NORAD_CAT_ID   = 28415
ELEMENT_SET_NO = 999
REV_AT_EPOCH   = 16539
BSTAR          = .6173E-3
MEAN_MOTION_DOT = .16638E-3
MEAN_MOTION_DDOT = 0

CCSDS_OMM_VERS = 2.0
CREATION_DATE  = 
ORIGINATOR     = 

OBJECT_NAME    = CZ-2C R/B
OBJECT_ID      = 2004-046B
CENTER_NAME    = EARTH
REF_FRAME      = TEME
TIME_SYSTEM    = UTC
MEAN_ELEMENT_THEORY = SGP/SGP4

EPOCH          = 2025-12-04T16:26:06.739872
MEAN_MOTION    = 14.26935015
ECCENTRICITY   = .0140668
INCLINATION    = 98.1982
RA_OF_ASC_NODE = 254.5637
ARG_OF_PERICENTER = 75.9354
MEAN_ANOMALY   = 285.7418

EPHEMERIS_TYPE = 0
CLASSIFICATION_TYPE = U
NORAD_CAT_ID   = 28480
ELEMENT_SET_NO = 999
REV_AT_EPOCH   = 9495
BSTAR          = .13975E-3
MEAN_MOTION_DOT = .337E-5
MEAN_MOTION_DDOT = 0

CCSDS_OMM_VERS = 2.0
CREATION_DATE  = 
ORIGINATOR     = 

OBJECT_NAME    = ARIANE 5 R/B
OBJECT_ID      = 2004-049H
CENTER_NAME    = EARTH
REF_FRAME      = TEME
TIME_SYSTEM    = UTC
MEAN_ELEMENT_THEORY = SGP/SGP4

EPOCH          = 2025-12-04T10:22:13.340640
MEAN_MOTION    = 14.84983056
ECCENTRICITY   = .0083533
INCLINATION    = 98.2520
RA_OF_ASC_NODE = 138.4157
ARG_OF_PERICENTER = 300.2498
MEAN_ANOMALY   = 59.0465

EPHEMERIS_TYPE = 0
CLASSIFICATION_TYPE = U
NORAD_CAT_ID   = 28499
ELEMENT_SET_NO = 999
REV_AT_EPOCH   = 13165
BSTAR          = .22365E-3
MEAN_MOTION_DOT = .1964E-4
MEAN_MOTION_DDOT = 0

CCSDS_OMM_VERS = 2.0
CREATION_DATE  = 
ORIGINATOR     = 

OBJECT_NAME    = CZ-2D R/B
OBJECT_ID      = 2005-024B
CENTER_NAME    = EARTH
REF_FRAME      = TEME
TIME_SYSTEM    = UTC
MEAN_ELEMENT_THEORY = SGP/SGP4

EPOCH          = 2025-12-04T12:54:56.918592
MEAN_MOTION    = 15.52570493
ECCENTRICITY   = .0006791
INCLINATION    = 97.3628
RA_OF_ASC_NODE = 345.7745
ARG_OF_PERICENTER = 32.9866
MEAN_ANOMALY   = 327.1809

EPHEMERIS_TYPE = 0
CLASSIFICATION_TYPE = U
NORAD_CAT_ID   = 28738
ELEMENT_SET_NO = 999
REV_AT_EPOCH   = 12498
BSTAR          = .67452E-3
MEAN_MOTION_DOT = .41508E-3
MEAN_MOTION_DDOT = 0

